{
  "type": "FeatureCollection",
  "features": [
    {
      "type": "Feature",
      "properties": {
        "norad_id": 66456,
        "name": "STARLINK-35643",
        "group": "last-30-days",
        "lat": -39.96979611764219,
        "lon": -21.24568437903043,
        "alt_km": 446.44743207386273,
        "timestamp": "2025-12-08T17:43:03.631383+00:00",
        "meta_object_name": "STARLINK-35643",
        "meta_object_id": "2025-262A",
        "meta_epoch": "2025-12-08T06:00:02.999808",
        "meta_mean_motion": 15.40623415,
        "meta_eccentricity": 0.00012669,
        "meta_inclination": 43.0007,
        "meta_ra_of_asc_node": 97.4787,
        "meta_arg_of_pericenter": 262.6429,
        "meta_mean_anomaly": 156.7885,
        "meta_ephemeris_type": 0,
        "meta_classification_type": "U",
        "meta_norad_cat_id": 66456,
        "meta_element_set_no": 999,
        "meta_rev_at_epoch": 491,
        "meta_bstar": 0.0020301135,
        "meta_mean_motion_dot": 0.00085234,
        "meta_mean_motion_ddot": 0,
        "tle_line1": "1 66456U 25262A   25342.25003472  .00085234  00000+0  20301-2 0  9992",
        "tle_line2": "2 66456  43.0007  97.4787 0001266 262.6429 156.7885 15.40623415  4916"
      },
      "geometry": {
        "type": "Point",
        "coordinates": [
          -21.24568437903043,
          -39.96979611764219
        ]
      }
    },
    {
      "type": "Feature",
      "properties": {
        "norad_id": 66457,
        "name": "STARLINK-35466",
        "group": "last-30-days",
        "lat": -42.75269901520832,
        "lon": 11.828738220600567,
        "alt_km": 443.4834233398369,
        "timestamp": "2025-12-08T17:43:03.631393+00:00",
        "meta_object_name": "STARLINK-35466",
        "meta_object_id": "2025-262B",
        "meta_epoch": "2025-12-08T06:00:02.999808",
        "meta_mean_motion": 15.43422032,
        "meta_eccentricity": 0.00014524,
        "meta_inclination": 43.0007,
        "meta_ra_of_asc_node": 97.4258,
        "meta_arg_of_pericenter": 273.1133,
        "meta_mean_anomaly": 167.9401,
        "meta_ephemeris_type": 0,
        "meta_classification_type": "U",
        "meta_norad_cat_id": 66457,
        "meta_element_set_no": 999,
        "meta_rev_at_epoch": 491,
        "meta_bstar": -0.041114469,
        "meta_mean_motion_dot": -0.01679451,
        "meta_mean_motion_ddot": 0,
        "tle_line1": "1 66457U 25262B   25342.25003472 -.01679451  00000+0 -41114-1 0  9990",
        "tle_line2": "2 66457  43.0007  97.4258 0001452 273.1133 167.9401 15.43422032  4919"
      },
      "geometry": {
        "type": "Point",
        "coordinates": [
          11.828738220600567,
          -42.75269901520832
        ]
      }
    },
    {
      "type": "Feature",
      "properties": {
        "norad_id": 66458,
        "name": "STARLINK-35684",
        "group": "last-30-days",
        "lat": -42.560188618843526,
        "lon": -5.16958521491385,
        "alt_km": 447.69788610873275,
        "timestamp": "2025-12-08T17:43:03.631404+00:00",
        "meta_object_name": "STARLINK-35684",
        "meta_object_id": "2025-262C",
        "meta_epoch": "2025-12-08T06:00:02.999808",
        "meta_mean_motion": 15.42148028,
        "meta_eccentricity": 0.00014964,
        "meta_inclination": 43.0006,
        "meta_ra_of_asc_node": 97.4499,
        "meta_arg_of_pericenter": 261.9437,
        "meta_mean_anomaly": 168.9858,
        "meta_ephemeris_type": 0,
        "meta_classification_type": "U",
        "meta_norad_cat_id": 66458,
        "meta_element_set_no": 999,
        "meta_rev_at_epoch": 491,
        "meta_bstar": -0.047185875,
        "meta_mean_motion_dot": -0.01858879,
        "meta_mean_motion_ddot": 0,
        "tle_line1": "1 66458U 25262C   25342.25003472 -.01858879  00000+0 -47186-1 0  9999",
        "tle_line2": "2 66458  43.0006  97.4499 0001496 261.9437 168.9858 15.42148028  4912"
      },
      "geometry": {
        "type": "Point",
        "coordinates": [
          -5.16958521491385,
          -42.560188618843526
        ]
      }
    },
    {
      "type": "Feature",
      "properties": {
        "norad_id": 66459,
        "name": "STARLINK-35449",
        "group": "last-30-days",
        "lat": -40.900049206553604,
        "lon": 26.212852097216317,
        "alt_km": 440.2529819695519,
        "timestamp": "2025-12-08T17:43:03.631414+00:00",
        "meta_object_name": "STARLINK-35449",
        "meta_object_id": "2025-262D",
        "meta_epoch": "2025-12-08T06:00:02.999808",
        "meta_mean_motion": 15.44865919,
        "meta_eccentricity": 0.0001412,
        "meta_inclination": 43.0009,
        "meta_ra_of_asc_node": 97.4042,
        "meta_arg_of_pericenter": 275.2641,
        "meta_mean_anomaly": 174.4735,
        "meta_ephemeris_type": 0,
        "meta_classification_type": "U",
        "meta_norad_cat_id": 66459,
        "meta_element_set_no": 999,
        "meta_rev_at_epoch": 491,
        "meta_bstar": -0.047565906,
        "meta_mean_motion_dot": -0.0203441,
        "meta_mean_motion_ddot": 0,
        "tle_line1": "1 66459U 25262D   25342.25003472 -.02034410  00000+0 -47566-1 0  9990",
        "tle_line2": "2 66459  43.0009  97.4042 0001412 275.2641 174.4735 15.44865919  4916"
      },
      "geometry": {
        "type": "Point",
        "coordinates": [
          26.212852097216317,
          -40.900049206553604
        ]
      }
    },
    {
      "type": "Feature",
      "properties": {
        "norad_id": 66460,
        "name": "STARLINK-35424",
        "group": "last-30-days",
        "lat": -37.86129532404264,
        "lon": 38.016296621205846,
        "alt_km": 436.2056179118972,
        "timestamp": "2025-12-08T17:43:03.631425+00:00",
        "meta_object_name": "STARLINK-35424",
        "meta_object_id": "2025-262E",
        "meta_epoch": "2025-12-08T06:00:02.999808",
        "meta_mean_motion": 15.4618905,
        "meta_eccentricity": 0.00014254,
        "meta_inclination": 42.9999,
        "meta_ra_of_asc_node": 97.3868,
        "meta_arg_of_pericenter": 274.0287,
        "meta_mean_anomaly": 182.9886,
        "meta_ephemeris_type": 0,
        "meta_classification_type": "U",
        "meta_norad_cat_id": 66460,
        "meta_element_set_no": 999,
        "meta_rev_at_epoch": 491,
        "meta_bstar": -0.04491724,
        "meta_mean_motion_dot": -0.02013787,
        "meta_mean_motion_ddot": 0,
        "tle_line1": "1 66460U 25262E   25342.25003472 -.02013787  00000+0 -44917-1 0  9993",
        "tle_line2": "2 66460  42.9999  97.3868 0001425 274.0287 182.9886 15.46189050  4914"
      },
      "geometry": {
        "type": "Point",
        "coordinates": [
          38.016296621205846,
          -37.86129532404264
        ]
      }
    },
    {
      "type": "Feature",
      "properties": {
        "norad_id": 66461,
        "name": "STARLINK-35132",
        "group": "last-30-days",
        "lat": -34.41470613129257,
        "lon": 47.211204437862506,
        "alt_km": 432.2440057413487,
        "timestamp": "2025-12-08T17:43:03.631435+00:00",
        "meta_object_name": "STARLINK-35132",
        "meta_object_id": "2025-262F",
        "meta_epoch": "2025-12-08T06:00:02.999808",
        "meta_mean_motion": 15.47531721,
        "meta_eccentricity": 0.0001425,
        "meta_inclination": 43.0005,
        "meta_ra_of_asc_node": 97.3721,
        "meta_arg_of_pericenter": 273.8264,
        "meta_mean_anomaly": 189.0551,
        "meta_ephemeris_type": 0,
        "meta_classification_type": "U",
        "meta_norad_cat_id": 66461,
        "meta_element_set_no": 999,
        "meta_rev_at_epoch": 491,
        "meta_bstar": -0.043483219,
        "meta_mean_motion_dot": -0.02040025,
        "meta_mean_motion_ddot": 0,
        "tle_line1": "1 66461U 25262F   25342.25003472 -.02040025  00000+0 -43483-1 0  9996",
        "tle_line2": "2 66461  43.0005  97.3721 0001425 273.8264 189.0551 15.47531721  4919"
      },
      "geometry": {
        "type": "Point",
        "coordinates": [
          47.211204437862506,
          -34.41470613129257
        ]
      }
    },
    {
      "type": "Feature",
      "properties": {
        "norad_id": 66462,
        "name": "STARLINK-35499",
        "group": "last-30-days",
        "lat": -31.080272924027806,
        "lon": 54.211689414764976,
        "alt_km": 428.581233534941,
        "timestamp": "2025-12-08T17:43:03.631448+00:00",
        "meta_object_name": "STARLINK-35499",
        "meta_object_id": "2025-262G",
        "meta_epoch": "2025-12-08T06:00:02.999808",
        "meta_mean_motion": 15.48874246,
        "meta_eccentricity": 0.00010742,
        "meta_inclination": 43.0006,
        "meta_ra_of_asc_node": 97.3594,
        "meta_arg_of_pericenter": 267.2269,
        "meta_mean_anomaly": 200.0923,
        "meta_ephemeris_type": 0,
        "meta_classification_type": "U",
        "meta_norad_cat_id": 66462,
        "meta_element_set_no": 999,
        "meta_rev_at_epoch": 491,
        "meta_bstar": -0.041938996,
        "meta_mean_motion_dot": -0.02060389,
        "meta_mean_motion_ddot": 0,
        "tle_line1": "1 66462U 25262G   25342.25003472 -.02060389  00000+0 -41939-1 0  9996",
        "tle_line2": "2 66462  43.0006  97.3594 0001074 267.2269 200.0923 15.48874246  4911"
      },
      "geometry": {
        "type": "Point",
        "coordinates": [
          54.211689414764976,
          -31.080272924027806
        ]
      }
    }
  ]
}